[{"OBJECT_NAME":"ICEYE-X37","OBJECT_ID":"2024-043E","EPOCH":"2026-03-09T21:28:27.980256","MEAN_MOTION":15.05207146,"ECCENTRICITY":0.00148076,"INCLINATION":97.8149,"RA_OF_ASC_NODE":204.4924,"ARG_OF_PERICENTER":351.2295,"MEAN_ANOMALY":8.867,"EPHEMERIS_TYPE":0,"CLASSIFICATION_TYPE":"U","NORAD_CAT_ID":59102,"ELEMENT_SET_NO":999,"REV_AT_EPOCH":11014,"BSTAR":0.00044484532,"MEAN_MOTION_DOT":6.299e-5,"MEAN_MOTION_DDOT":0},{"OBJECT_NAME":"STARLINK-35068","OBJECT_ID":"2025-194E","EPOCH":"2026-03-09T13:27:57.940992","MEAN_MOTION":15.05664701,"ECCENTRICITY":0.00024276,"INCLINATION":97.6012,"RA_OF_ASC_NODE":284.1953,"ARG_OF_PERICENTER":89.7528,"MEAN_ANOMALY":270.3977,"EPHEMERIS_TYPE":0,"CLASSIFICATION_TYPE":"U","NORAD_CAT_ID":65438,"ELEMENT_SET_NO":999,"REV_AT_EPOCH":2962,"BSTAR":0.00053260242,"MEAN_MOTION_DOT":7.636e-5,"MEAN_MOTION_DDOT":0}]
